$$SOE
2461295.500000000, A.D. 2026-Sep-12 00:00:00.0000, 3.073340008105082E+08, -4.015455941074488E+08, -2.251067096309686E+07,
2461302.500000000, A.D. 2026-Sep-19 00:00:00.0000, 3.146999066928661E+08, -3.950544256224798E+08, -2.244977925502622E+07,
2461309.500000000, A.D. 2026-Sep-26 00:00:00.0000, 3.219476156187332E+08, -3.884148886951897E+08, -2.238045420925498E+07,
2461316.500000000, A.D. 2026-Oct-03 00:00:00.0000, 3.290739838258234E+08, -3.816289722819548E+08, -2.230269258558923E+07,
2461323.500000000, A.D. 2026-Oct-10 00:00:00.0000, 3.360758933637002E+08, -3.746987364177135E+08, -2.221649443753578E+07,
2461330.500000000, A.D. 2026-Oct-17 00:00:00.0000, 3.429502537632787E+08, -3.676263122177136E+08, -2.212186315179721E+07,
2461337.500000000, A.D. 2026-Oct-24 00:00:00.0000, 3.496940037238045E+08, -3.604139019335985E+08, -2.201880549457987E+07,
2461344.500000000, A.D. 2026-Oct-31 00:00:00.0000, 3.563041129144149E+08, -3.530637791285687E+08, -2.190733167899075E+07,
2461351.500000000, A.D. 2026-Nov-07 00:00:00.0000, 3.627775842280298E+08, -3.455782888951603E+08, -2.178745547829506E+07,
2461358.500000000, A.D. 2026-Nov-14 00:00:00.0000, 3.691114566878488E+08, -3.379598472263476E+08, -2.165919433061042E+07,
2461365.500000000, A.D. 2026-Nov-21 00:00:00.0000, 3.753028071939736E+08, -3.302109388571709E+08, -2.152256921277919E+07,
2461372.500000000, A.D. 2026-Nov-28 00:00:00.0000, 3.813487501100537E+08, -3.223341165836125E+08, -2.137760443734190E+07,
2461379.500000000, A.D. 2026-Dec-05 00:00:00.0000, 3.872464383071209E+08, -3.143320027124156E+08, -2.122432775785556E+07,
2461386.500000000, A.D. 2026-Dec-12 00:00:00.0000, 3.929930658281971E+08, -3.062072895284957E+08, -2.106277054306510E+07,
2461393.500000000, A.D. 2026-Dec-19 00:00:00.0000, 3.985858702853193E+08, -2.979627387720314E+08, -2.089296784594248E+07,
2461400.500000000, A.D. 2026-Dec-26 00:00:00.0000, 4.040221348450466E+08, -2.896011809919475E+08, -2.071495842514792E+07,
2461407.500000000, A.D. 2027-Jan-02 00:00:00.0000, 4.092991900762898E+08, -2.811255149653793E+08, -2.052878475953877E+07,
2461414.500000000, A.D. 2027-Jan-09 00:00:00.0000, 4.144144157749653E+08, -2.725387071617206E+08, -2.033449306457730E+07,
2461421.500000000, A.D. 2027-Jan-16 00:00:00.0000, 4.193652427977809E+08, -2.638437912413745E+08, -2.013213331298213E+07,
2461428.500000000, A.D. 2027-Jan-23 00:00:00.0000, 4.241491549474062E+08, -2.550438676278028E+08, -1.992175926696934E+07,
2461435.500000000, A.D. 2027-Jan-30 00:00:00.0000, 4.287636910924234E+08, -2.461421031993159E+08, -1.970342854315940E+07,
2461442.500000000, A.D. 2027-Feb-06 00:00:00.0000, 4.332064479426559E+08, -2.371417307587795E+08, -1.947720272131036E+07,
2461449.500000000, A.D. 2027-Feb-13 00:00:00.0000, 4.374750830165942E+08, -2.280460470602823E+08, -1.924314735497810E+07,
2461456.500000000, A.D. 2027-Feb-20 00:00:00.0000, 4.415673154343843E+08, -2.188584101838457E+08, -1.900133173199505E+07,
2461463.500000000, A.D. 2027-Feb-27 00:00:00.0000, 4.454809259281182E+08, -2.095822394716219E+08, -1.875182877556866E+07,
2461470.500000000, A.D. 2027-Mar-06 00:00:00.0000, 4.492137590832343E+08, -2.002210161013948E+08, -1.849471520582339E+07,
2461477.500000000, A.D. 2027-Mar-13 00:00:00.0000, 4.527637262079803E+08, -1.907782822465698E+08, -1.823007164761706E+07,
2461484.500000000, A.D. 2027-Mar-20 00:00:00.0000, 4.561288076991666E+08, -1.812576396566731E+08, -1.795798264933090E+07,
2461491.500000000, A.D. 2027-Mar-27 00:00:00.0000, 4.593070551036820E+08, -1.716627482068605E+08, -1.767853667607217E+07,
2461498.500000000, A.D. 2027-Apr-03 00:00:00.0000, 4.622965930760646E+08, -1.619973244637908E+08, -1.739182609982024E+07,
2461505.500000000, A.D. 2027-Apr-10 00:00:00.0000, 4.650956212907957E+08, -1.522651402446065E+08, -1.709794719023353E+07,
2461512.500000000, A.D. 2027-Apr-17 00:00:00.0000, 4.677024163287833E+08, -1.424700211834966E+08, -1.679700010927526E+07,
2461519.500000000, A.D. 2027-Apr-24 00:00:00.0000, 4.701153336142013E+08, -1.326158453686047E+08, -1.648908892195959E+07,
2461526.500000000, A.D. 2027-May-01 00:00:00.0000, 4.723328096972617E+08, -1.227065420221180E+08, -1.617432164838127E+07,
2461533.500000000, A.D. 2027-May-08 00:00:00.0000, 4.743533651856731E+08, -1.127460894750650E+08, -1.585281032395986E+07,
2461540.500000000, A.D. 2027-May-15 00:00:00.0000, 4.761756068244084E+08, -1.027385114831151E+08, -1.552467085251615E+07,
2461547.500000000, A.D. 2027-May-22 00:00:00.0000, 4.777982271569227E+08, -9.268787447582056E+07, -1.519002272044187E+07,
2461554.500000000, A.D. 2027-May-29 00:00:00.0000, 4.792200051191048E+08, -8.259828720799351E+07, -1.484898899972327E+07,
2461561.500000000, A.D. 2027-Jun-05 00:00:00.0000, 4.804398084467856E+08, -7.247389968070737E+07, -1.450169646492819E+07,
2461568.500000000, A.D. 2027-Jun-12 00:00:00.0000, 4.814565958873935E+08, -6.231890090022141E+07, -1.414827560457264E+07,
2461575.500000000, A.D. 2027-Jun-19 00:00:00.0000, 4.822694188832051E+08, -5.213751641132249E+07, -1.378886057272315E+07,
2461582.500000000, A.D. 2027-Jun-26 00:00:00.0000, 4.828774230033615E+08, -4.193400586852881E+07, -1.342358912760089E+07,
2461589.500000000, A.D. 2027-Jul-03 00:00:00.0000, 4.832798492538225E+08, -3.171266063906379E+07, -1.305260256838141E+07,
2461596.500000000, A.D. 2027-Jul-10 00:00:00.0000, 4.834760352987990E+08, -2.147780143095821E+07, -1.267604567259515E+07,
2461603.500000000, A.D. 2027-Jul-17 00:00:00.0000, 4.834654166267077E+08, -1.123377598720447E+07, -1.229406664037489E+07,
2461610.500000000, A.D. 2027-Jul-24 00:00:00.0000, 4.832475278137099E+08, -9.849569110814771E+05, -1.190681706481095E+07,
2461617.500000000, A.D. 2027-Jul-31 00:00:00.0000, 4.828220042922448E+08, 9.264260610401625E+06, -1.151445194674187E+07,
2461624.500000000, A.D. 2027-Aug-07 00:00:00.0000, 4.821885844195318E+08, 1.950946233504267E+07, -1.111712964126918E+07,
2461631.500000000, A.D. 2027-Aug-14 00:00:00.0000, 4.813471095429330E+08, 2.974621949140274E+07, -1.071501154542848E+07,
2461638.500000000, A.D. 2027-Aug-21 00:00:00.0000, 4.802975226796114E+08, 3.997009093473267E+07, -1.030826185866104E+07,
2461645.500000000, A.D. 2027-Aug-28 00:00:00.0000, 4.790398692381866E+08, 5.017662413216921E+07, -9.897047632634439E+06,
2461652.500000000, A.D. 2027-Sep-04 00:00:00.0000, 4.775742985975146E+08, 6.036135747671802E+07, -9.481538797763703E+06,
2461659.500000000, A.D. 2027-Sep-11 00:00:00.0000, 4.759010651449033E+08, 7.051982326584914E+07, -9.061908092718121E+06,
2461666.500000000, A.D. 2027-Sep-18 00:00:00.0000, 4.740205289048994E+08, 8.064755069117230E+07, -8.638330962550391E+06,
2461673.500000000, A.D. 2027-Sep-25 00:00:00.0000, 4.719331559852953E+08, 9.074006875803573E+07, -8.210985453103628E+06,
2461680.500000000, A.D. 2027-Oct-02 00:00:00.0000, 4.696395189130877E+08, 1.007929091590880E+08, -7.780052106652863E+06,
2461687.500000000, A.D. 2027-Oct-09 00:00:00.0000, 4.671402968806141E+08, 1.108016090938775E+08, -7.345713861524738E+06,
2461694.500000000, A.D. 2027-Oct-16 00:00:00.0000, 4.644362759631230E+08, 1.207617139762812E+08, -6.908155966278933E+06,
2461701.500000000, A.D. 2027-Oct-23 00:00:00.0000, 4.615283495661240E+08, 1.306687800205300E+08, -6.467565933080629E+06,
2461708.500000000, A.D. 2027-Oct-30 00:00:00.0000, 4.584175194752579E+08, 1.405183773121806E+08, -6.024133515113987E+06,
2461715.500000000, A.D. 2027-Nov-06 00:00:00.0000, 4.551048963427294E+08, 1.503060944890544E+08, -5.578050509357132E+06,
2461722.500000000, A.D. 2027-Nov-13 00:00:00.0000, 4.515916976251807E+08, 1.600275429539813E+08, -5.129510372339085E+06,
2461729.500000000, A.D. 2027-Nov-20 00:00:00.0000, 4.478792458770065E+08, 1.696783584293729E+08, -4.678708093881868E+06,
2461736.500000000, A.D. 2027-Nov-27 00:00:00.0000, 4.439689690161235E+08, 1.792542028126784E+08, -4.225840235195853E+06,
2461743.500000000, A.D. 2027-Dec-04 00:00:00.0000, 4.398624005376419E+08, 1.887507672423287E+08, -3.771104871150307E+06,
2461750.500000000, A.D. 2027-Dec-11 00:00:00.0000, 4.355611791250497E+08, 1.981637754061663E+08, -3.314701465049431E+06,
2461757.500000000, A.D. 2027-Dec-18 00:00:00.0000, 4.310670479344978E+08, 2.074889867490194E+08, -2.856830728897870E+06,
2461764.500000000, A.D. 2027-Dec-25 00:00:00.0000, 4.263818537049262E+08, 2.167221995728787E+08, -2.397694483330637E+06,
2461771.500000000, A.D. 2028-Jan-01 00:00:00.0000, 4.215075457363536E+08, 2.258592540397181E+08, -1.937495519870400E+06,
$$EOE